IRIDIUM 119             
1 42959U 17061E   25330.93753049  .00000085  00000+0  23332-4 0  9996
2 42959  86.3953 109.8203 0001843  86.9676 273.1731 14.34218112425828
IRIDIUM 107             
1 42960U 17061F   25330.88678944  .00000075  00000+0  19706-4 0  9991
2 42960  86.3951 109.8616 0001627  99.6189 260.5191 14.34217940425824
IRIDIUM 132             
1 42961U 17061G   25330.89313164  .00000309  00000+0  10312-3 0  9996
2 42961  86.3950 109.8399 0001944  95.2565 264.8852 14.34217318425824
IRIDIUM 136             
1 42962U 17061H   25330.92484559  .00000110  00000+0  32283-4 0  9990
2 42962  86.3951 109.8321 0001887  91.5127 268.6285 14.34218066425845
IRIDIUM 139             
1 42963U 17061J   25330.37303918  .00000273  00000+0  90382-4 0  9993
2 42963  86.3966 110.1213 0001993  95.9182 264.2241 14.34220355425774
IRIDIUM 125             
1 42964U 17061K   25330.91849882  .00000369  00000+0  12475-3 0  9991
2 42964  86.3954 109.9509 0001498  87.9057 272.2310 14.34221820425862
IRIDIUM 135             
1 43070U 17083A   25331.17171140  .00000360  00000+0  12160-3 0  9990
2 43070  86.3980  46.4516 0002238  96.0584 264.0867 14.34220717415197
IRIDIUM 138             
1 43071U 17083B   25331.19708068  .00000364  00000+0  12279-3 0  9993
2 43071  86.3996  46.1054 0002005  84.8428 275.2996 14.34220797415187
